[{"OBJECT_NAME":"UHETSAT","OBJECT_ID":"2023-185E","EPOCH":"2026-03-09T22:39:26.455680","MEAN_MOTION":15.29797662,"ECCENTRICITY":0.00118435,"INCLINATION":97.3584,"RA_OF_ASC_NODE":137.3576,"ARG_OF_PERICENTER":307.7346,"MEAN_ANOMALY":52.2821,"EPHEMERIS_TYPE":0,"CLASSIFICATION_TYPE":"U","NORAD_CAT_ID":58466,"ELEMENT_SET_NO":999,"REV_AT_EPOCH":12611,"BSTAR":0.00030513019,"MEAN_MOTION_DOT":8.749e-5,"MEAN_MOTION_DDOT":0},{"OBJECT_NAME":"STARLINK-34787","OBJECT_ID":"2025-176G","EPOCH":"2026-03-09T22:43:31.092096","MEAN_MOTION":15.30200787,"ECCENTRICITY":0.00013805,"INCLINATION":53.1606,"RA_OF_ASC_NODE":151.2612,"ARG_OF_PERICENTER":89.6011,"MEAN_ANOMALY":270.5147,"EPHEMERIS_TYPE":0,"CLASSIFICATION_TYPE":"U","NORAD_CAT_ID":65204,"ELEMENT_SET_NO":999,"REV_AT_EPOCH":3316,"BSTAR":0.00096241233,"MEAN_MOTION_DOT":0.00028254,"MEAN_MOTION_DDOT":0}]
